[{"OBJECT_NAME":"DUPLEX","OBJECT_ID":"1998-067XS","EPOCH":"2026-04-05T06:50:09.612672","MEAN_MOTION":15.58054408,"ECCENTRICITY":0.00033888,"INCLINATION":51.6286,"RA_OF_ASC_NODE":296.2512,"ARG_OF_PERICENTER":238.8669,"MEAN_ANOMALY":121.1992,"EPHEMERIS_TYPE":0,"CLASSIFICATION_TYPE":"U","NORAD_CAT_ID":66906,"ELEMENT_SET_NO":999,"REV_AT_EPOCH":1927,"BSTAR":0.00045585237,"MEAN_MOTION_DOT":0.00034554,"MEAN_MOTION_DDOT":0},{"OBJECT_NAME":"ISS OBJECT XT","OBJECT_ID":"1998-067XT","EPOCH":"2026-04-04T13:11:17.854944","MEAN_MOTION":15.80264331,"ECCENTRICITY":0.00071857,"INCLINATION":51.6224,"RA_OF_ASC_NODE":292.7926,"ARG_OF_PERICENTER":249.6883,"MEAN_ANOMALY":110.3346,"EPHEMERIS_TYPE":0,"CLASSIFICATION_TYPE":"U","NORAD_CAT_ID":66907,"ELEMENT_SET_NO":999,"REV_AT_EPOCH":1925,"BSTAR":0.0015899957,"MEAN_MOTION_DOT":0.00316879,"MEAN_MOTION_DDOT":0},{"OBJECT_NAME":"ISS OBJECT XU","OBJECT_ID":"1998-067XU","EPOCH":"2026-04-04T13:04:01.545312","MEAN_MOTION":15.80626802,"ECCENTRICITY":0.00073235,"INCLINATION":51.6221,"RA_OF_ASC_NODE":292.7537,"ARG_OF_PERICENTER":249.1942,"MEAN_ANOMALY":110.8275,"EPHEMERIS_TYPE":0,"CLASSIFICATION_TYPE":"U","NORAD_CAT_ID":66908,"ELEMENT_SET_NO":999,"REV_AT_EPOCH":1925,"BSTAR":0.0016262848,"MEAN_MOTION_DOT":0.00330086,"MEAN_MOTION_DDOT":0},{"OBJECT_NAME":"SILVERSAT","OBJECT_ID":"1998-067XV","EPOCH":"2026-04-04T18:53:20.827104","MEAN_MOTION":15.88187528,"ECCENTRICITY":0.000905,"INCLINATION":51.6184,"RA_OF_ASC_NODE":289.8512,"ARG_OF_PERICENTER":258.4718,"MEAN_ANOMALY":101.5271,"EPHEMERIS_TYPE":0,"CLASSIFICATION_TYPE":"U","NORAD_CAT_ID":66909,"ELEMENT_SET_NO":999,"REV_AT_EPOCH":1931,"BSTAR":0.0018876,"MEAN_MOTION_DOT":0.00565248,"MEAN_MOTION_DDOT":0},{"OBJECT_NAME":"ISS OBJECT XW","OBJECT_ID":"1998-067XW","EPOCH":"2026-04-04T19:36:47.567808","MEAN_MOTION":15.78347512,"ECCENTRICITY":0.00074492,"INCLINATION":51.6195,"RA_OF_ASC_NODE":291.5715,"ARG_OF_PERICENTER":246.0581,"MEAN_ANOMALY":113.9639,"EPHEMERIS_TYPE":0,"CLASSIFICATION_TYPE":"U","NORAD_CAT_ID":66910,"ELEMENT_SET_NO":999,"REV_AT_EPOCH":1929,"BSTAR":0.0012620228,"MEAN_MOTION_DOT":0.00228077,"MEAN_MOTION_DDOT":0},{"OBJECT_NAME":"ISS OBJECT XX","OBJECT_ID":"1998-067XX","EPOCH":"2026-04-05T06:06:20.007072","MEAN_MOTION":16.00504805,"ECCENTRICITY":0.00116803,"INCLINATION":51.614,"RA_OF_ASC_NODE":285.4187,"ARG_OF_PERICENTER":268.8533,"MEAN_ANOMALY":91.1139,"EPHEMERIS_TYPE":0,"CLASSIFICATION_TYPE":"U","NORAD_CAT_ID":66911,"ELEMENT_SET_NO":999,"REV_AT_EPOCH":1940,"BSTAR":0.0021826262,"MEAN_MOTION_DOT":0.01178235,"MEAN_MOTION_DDOT":0.00072726344},{"OBJECT_NAME":"ISS OBJECT XY","OBJECT_ID":"1998-067XY","EPOCH":"2026-04-05T05:58:08.659776","MEAN_MOTION":15.69674639,"ECCENTRICITY":0.00051641,"INCLINATION":51.6246,"RA_OF_ASC_NODE":292.2426,"ARG_OF_PERICENTER":247.002,"MEAN_ANOMALY":113.0432,"EPHEMERIS_TYPE":0,"CLASSIFICATION_TYPE":"U","NORAD_CAT_ID":66912,"ELEMENT_SET_NO":999,"REV_AT_EPOCH":1931,"BSTAR":0.0011559235,"MEAN_MOTION_DOT":0.00141961,"MEAN_MOTION_DDOT":0},{"OBJECT_NAME":"KNACKSAT-2","OBJECT_ID":"1998-067XZ","EPOCH":"2026-04-04T18:57:48.329280","MEAN_MOTION":15.54148205,"ECCENTRICITY":0.00107207,"INCLINATION":51.6331,"RA_OF_ASC_NODE":301.9471,"ARG_OF_PERICENTER":281.6024,"MEAN_ANOMALY":78.3763,"EPHEMERIS_TYPE":0,"CLASSIFICATION_TYPE":"U","NORAD_CAT_ID":67683,"ELEMENT_SET_NO":999,"REV_AT_EPOCH":884,"BSTAR":0.00075544083,"MEAN_MOTION_DOT":0.0004999,"MEAN_MOTION_DDOT":0},{"OBJECT_NAME":"CORAL","OBJECT_ID":"1998-067YA","EPOCH":"2026-04-05T06:41:30.426432","MEAN_MOTION":15.59272459,"ECCENTRICITY":0.00136838,"INCLINATION":51.6289,"RA_OF_ASC_NODE":298.4624,"ARG_OF_PERICENTER":274.6624,"MEAN_ANOMALY":85.2805,"EPHEMERIS_TYPE":0,"CLASSIFICATION_TYPE":"U","NORAD_CAT_ID":67684,"ELEMENT_SET_NO":999,"REV_AT_EPOCH":893,"BSTAR":0.0013997931,"MEAN_MOTION_DOT":0.00113769,"MEAN_MOTION_DDOT":0},{"OBJECT_NAME":"GXIBA-1","OBJECT_ID":"1998-067YB","EPOCH":"2026-04-04T18:39:38.478816","MEAN_MOTION":15.54782829,"ECCENTRICITY":0.00125022,"INCLINATION":51.6301,"RA_OF_ASC_NODE":301.8662,"ARG_OF_PERICENTER":279.3255,"MEAN_ANOMALY":80.6322,"EPHEMERIS_TYPE":0,"CLASSIFICATION_TYPE":"U","NORAD_CAT_ID":67685,"ELEMENT_SET_NO":999,"REV_AT_EPOCH":884,"BSTAR":0.00083058181,"MEAN_MOTION_DOT":0.00056407,"MEAN_MOTION_DDOT":0},{"OBJECT_NAME":"UITMSAT-2","OBJECT_ID":"1998-067YC","EPOCH":"2026-04-05T06:31:46.682112","MEAN_MOTION":15.55998102,"ECCENTRICITY":0.00095672,"INCLINATION":51.63,"RA_OF_ASC_NODE":299.1708,"ARG_OF_PERICENTER":255.739,"MEAN_ANOMALY":104.2539,"EPHEMERIS_TYPE":0,"CLASSIFICATION_TYPE":"U","NORAD_CAT_ID":67686,"ELEMENT_SET_NO":999,"REV_AT_EPOCH":892,"BSTAR":0.00099793281,"MEAN_MOTION_DOT":0.00071028,"MEAN_MOTION_DDOT":0},{"OBJECT_NAME":"HMU-SAT2","OBJECT_ID":"1998-067YD","EPOCH":"2026-04-04T18:48:25.578432","MEAN_MOTION":15.54504888,"ECCENTRICITY":0.0009085,"INCLINATION":51.631,"RA_OF_ASC_NODE":301.9093,"ARG_OF_PERICENTER":256.2021,"MEAN_ANOMALY":103.7959,"EPHEMERIS_TYPE":0,"CLASSIFICATION_TYPE":"U","NORAD_CAT_ID":67687,"ELEMENT_SET_NO":999,"REV_AT_EPOCH":876,"BSTAR":0.00080536,"MEAN_MOTION_DOT":0.00054021,"MEAN_MOTION_DDOT":0},{"OBJECT_NAME":"LEOPARD","OBJECT_ID":"1998-067YE","EPOCH":"2026-04-04T19:57:03.739392","MEAN_MOTION":15.55413317,"ECCENTRICITY":0.00092451,"INCLINATION":51.6311,"RA_OF_ASC_NODE":301.4769,"ARG_OF_PERICENTER":254.0354,"MEAN_ANOMALY":105.9619,"EPHEMERIS_TYPE":0,"CLASSIFICATION_TYPE":"U","NORAD_CAT_ID":67688,"ELEMENT_SET_NO":999,"REV_AT_EPOCH":877,"BSTAR":0.00077370698,"MEAN_MOTION_DOT":0.00053651,"MEAN_MOTION_DDOT":0},{"OBJECT_NAME":"CREW DRAGON 12","OBJECT_ID":"2026-031A","EPOCH":"2026-04-05T00:53:27.707136","MEAN_MOTION":15.4877812,"ECCENTRICITY":0.00062949,"INCLINATION":51.6327,"RA_OF_ASC_NODE":302.0967,"ARG_OF_PERICENTER":273.6206,"MEAN_ANOMALY":86.4063,"EPHEMERIS_TYPE":0,"CLASSIFICATION_TYPE":"U","NORAD_CAT_ID":67796,"ELEMENT_SET_NO":999,"REV_AT_EPOCH":56038,"BSTAR":0.00017854288,"MEAN_MOTION_DOT":9.326e-5,"MEAN_MOTION_DDOT":0},{"OBJECT_NAME":"PROGRESS-MS 33","OBJECT_ID":"2026-058A","EPOCH":"2026-04-05T00:53:27.707136","MEAN_MOTION":15.4877812,"ECCENTRICITY":0.00062949,"INCLINATION":51.6327,"RA_OF_ASC_NODE":302.0967,"ARG_OF_PERICENTER":273.6206,"MEAN_ANOMALY":86.4063,"EPHEMERIS_TYPE":0,"CLASSIFICATION_TYPE":"U","NORAD_CAT_ID":68319,"ELEMENT_SET_NO":999,"REV_AT_EPOCH":189,"BSTAR":0.00017854288,"MEAN_MOTION_DOT":9.326e-5,"MEAN_MOTION_DDOT":0}]
